[
    {
        "Altitude(m)": 622205.8865170113,
        "Argument of Periapsis(deg)": 0.0,
        "Eccentricity": 0.0,
        "Inclination(deg)": 60.0,
        "Latitude(deg)": -52.1624879275262,
        "Longitude(deg)": -142.29970497922795,
        "Mean Anomaly(deg)": 245.4545,
        "RAAN(deg)": 90.0,
        "Satellite Name": "Test1 411",
        "Satellite Number": 411,
        "Semi-Major Axis(m)": 6980739.136638005,
        "Time(s)": 0
    },
    {
        "Altitude(m)": 622344.7933768887,
        "Argument of Periapsis(deg)": 0.00010418945913296404,
        "Eccentricity": 0.0,
        "Inclination(deg)": 60.0,
        "Latitude(deg)": -52.520068570978886,
        "Longitude(deg)": -141.5184929662033,
        "Mean Anomaly(deg)": 246.07460614546184,
        "RAAN(deg)": 89.99957995086027,
        "Satellite Name": "Test1 411",
        "Satellite Number": 411,
        "Semi-Major Axis(m)": 6980739.136638005,
        "Time(s)": 10
    }
]